[{"OBJECT_NAME":"STARLINK-30305","OBJECT_ID":"2023-134E","EPOCH":"2026-03-09T08:41:47.221440","MEAN_MOTION":15.27572198,"ECCENTRICITY":0.00013349,"INCLINATION":42.9993,"RA_OF_ASC_NODE":196.5981,"ARG_OF_PERICENTER":208.7239,"MEAN_ANOMALY":151.354,"EPHEMERIS_TYPE":0,"CLASSIFICATION_TYPE":"U","NORAD_CAT_ID":57775,"ELEMENT_SET_NO":999,"REV_AT_EPOCH":13945,"BSTAR":-1.3812342e-5,"MEAN_MOTION_DOT":-6.42e-6,"MEAN_MOTION_DDOT":0},{"OBJECT_NAME":"BANDWAGON-4 OBJECT P","OBJECT_ID":"2025-248P","EPOCH":"2026-03-08T23:32:23.805312","MEAN_MOTION":15.24098352,"ECCENTRICITY":0.00120788,"INCLINATION":45.4037,"RA_OF_ASC_NODE":295.4322,"ARG_OF_PERICENTER":209.3167,"MEAN_ANOMALY":150.7044,"EPHEMERIS_TYPE":0,"CLASSIFICATION_TYPE":"U","NORAD_CAT_ID":66306,"ELEMENT_SET_NO":999,"REV_AT_EPOCH":1929,"BSTAR":0.00092291021,"MEAN_MOTION_DOT":0.00022647,"MEAN_MOTION_DDOT":0}]
